IRIDIUM 7               
1 24793U 97020B   25005.59081836  .00000986  00000+0  33500-3 0  9991
2 24793  86.3948 245.0025 0001752  80.0972 280.0423 14.35703110448789
IRIDIUM 5               
1 24795U 97020D   25005.73558498  .00007423  00000+0  64594-3 0  9992
2 24795  86.3931 158.4772 0114036   1.6099 358.5471 14.91825883461220
IRIDIUM 4               
1 24796U 97020E   25005.39826287  .00001049  00000+0  35010-3 0  9998
2 24796  86.3947 242.0660 0002013  80.1518 279.9907 14.36614873449098
IRIDIUM 17              
1 24870U 97034B   25005.80569294  .00001433  00000+0  47187-3 0  9999
2 24870  86.3966 303.0649 0002448 124.3605 235.7825 14.37557350440252
IRIDIUM 920             
1 24871U 97034C   25006.12672529  .00001367  00000+0  41712-3 0  9996
2 24871  86.3972 282.5194 0009364 255.5645 104.4516 14.41266296443490
